SITRO-AIS 9 (SHCHUKIN)  
1 57201U 23091AM  26188.50334957  .00013486  00000+0  35209-3 0  9994
2 57201  97.5065 259.2547 0005876  12.5211 347.6179 15.38910698167877
UTMN 2 (RS27S)          
1 57203U 23091AP  26188.50083440  .00008706  00000+0  27907-3 0  9999
2 57203  97.5074 256.0090 0007561  18.3435 341.8077 15.32573713167658
SITRO-AIS 12 (SMIRENNIY)
1 57204U 23091AQ  26188.49010443  .00013723  00000+0  35488-3 0  9999
2 57204  97.5079 259.7212 0005387   6.2833 353.8479 15.39203506167894
SITRO-AIS 11 (SHEFFER)  
1 57208U 23091AU  26188.49783280  .00014453  00000+0  36828-3 0  9999
2 57208  97.5077 259.9886 0005289   5.8782 354.2525 15.39644486167910
H2SAT (HEINRICH HERTZ)  
1 57213U 23093A   26187.93127432  .00000017  00000+0  00000+0 0  9996
2 57213   0.0143 103.1163 0001097  34.0278 123.7384  1.00270676 11115
KUZGTU 1 (RS47S)        
1 57217U 23091AV  26188.43819987  .00008534  00000+0  29284-3 0  9998
2 57217  97.5051 253.1294 0010900  33.2258 326.9665 15.30350683167476
QIANKUN-1               
1 57422U 23103B   26187.77776477  .00201077  20009-4  22982-3 0  9993
2 57422  96.1484 231.2442 0036173 142.6775 217.7034 16.07654573170448
FENGYUN 3F              
1 57490U 23111A   26188.47959308  .00000015  00000+0  27592-4 0  9997
2 57490  98.6828 258.1095 0001412  80.1372 279.9964 14.19942570151743
HJ-2F                   
1 57519U 23116A   26188.49578588  .00005599  00000+0  24361-3 0  9995
2 57519  97.3850 193.3639 0007422 344.2600  15.8404 15.22622267161846
XRISM                   
1 57800U 23137A   26188.44993644  .00002535  00000+0  13601-3 0  9992
2 57800  31.0012 228.3319 0007816 168.6403 191.4413 15.12636487155936
METEOR-M2 4             
1 59051U 24039A   26188.51226543  .00000010  00000+0  24254-4 0  9992
2 59051  98.7020 147.5558 0008167 107.8475 252.3594 14.22431618122150
GRBBETA                 
1 60237U 24128C   26188.46154757  .00002460  00000+0  17646-3 0  9997
2 60237  61.9890 145.1259 0037997 138.9442 221.4522 15.06772780109322
TRANSPORTER-11 OBJECT A 
1 60468U 24149A   26187.21273139  .00008567  00000+0  26911-3 0  9993
2 60468  97.3721 267.0866 0004407 139.2620 220.8952 15.33239338104977
WARATAH SEED-1          
1 60469U 24149B   26187.71780789  .00010699  00000+0  30288-3 0  9994
2 60469  97.3680 268.3167 0002876 137.0194 223.1275 15.36467018105112
PHISAT 2                
1 60470U 24149C   26188.50204562  .00005029  00000+0  16868-3 0  9993
2 60470  97.3746 267.6081 0002791 136.1446 224.0017 15.31348005105102
LEMUR-2-TOMATOKECHUP    
1 60471U 24149D   26187.71347409  .00008991  00000+0  25500-3 0  9998
2 60471  97.3789 269.8148 0002908 137.9028 222.2440 15.36460405105163
CONNECTA IOT-1          
1 60472U 24149E   26188.06120891  .00003182  00000+0  13548-3 0  9998
2 60472  97.3745 264.0177 0002099 159.6473 200.4848 15.23700125104825
LOPEN                   
1 60473U 24149F   26188.46859753  .00011162  00000+0  27898-3 0  9999
2 60473  97.3769 272.0026 0002348 147.4416 212.6975 15.40304119105383
ROCK                    
1 60474U 24149G   26187.22092936  .00015933  00000+0  39759-3 0  9994
2 60474  97.3764 270.7588 0002574 149.0840 211.0558 15.40266018105191
CONNECTA IOT-3          
1 60475U 24149H   26188.01675122  .00003442  00000+0  14625-3 0  9994
2 60475  97.3723 263.7215 0003196 164.5681 195.5654 15.23712963104820
QUBE                    
1 60476U 24149J   26187.69966953  .00022064  00000+0  42036-3 0  9991
2 60476  97.3769 274.5214 0003101 148.1376 212.0063 15.48202046105480
WREN-1                  
1 60478U 24149L   26187.73291715  .00016268  00000+0  37844-3 0  9995
2 60478  97.3757 272.0607 0004817 176.6834 183.4446 15.42378651105338
TOMORROW-S1             
1 60479U 24149M   26187.72038896  .00005883  00000+0  18694-3 0  9997
2 60479  97.3741 268.1341 0003475 150.7548 209.3890 15.33010122105086
FLOCK 4BE-18            
1 60480U 24149N   26187.67643088  .00014874  00000+0  34412-3 0  9994
2 60480  97.3719 271.6184 0004418 172.5556 187.5758 15.42564534105313
FLOCK 4BE-7             
1 60481U 24149P   26188.02702595  .00018577  00000+0  44899-3 0  9998
2 60481  97.3750 271.2759 0003703 170.7325 189.3991 15.41201300105309
TOMORROW-S2             
1 60485U 24149T   26188.46841382  .00005429  00000+0  17246-3 0  9996
2 60485  97.3811 269.3886 0003136 169.0111 191.1200 15.33063560105190
FLOCK 4BE-36            
1 60486U 24149U   26188.02638873  .00013008  00000+0  29345-3 0  9993
2 60486  97.3735 272.7003 0004141 175.2705 184.8583 15.43353640105410
FLOCK 4BE-25            
1 60487U 24149V   26188.17767941  .00010672  00000+0  27493-3 0  9995
2 60487  97.3790 271.4701 0003132 160.0470 200.0899 15.39388814105319
